{
 "cells": [
  {
   "cell_type": "markdown",
   "id": "e1b624c190831b1d",
   "metadata": {},
   "source": [
    "### Check to make sure we can access the space station satellite data."
   ]
  },
  {
   "cell_type": "code",
   "execution_count": 1,
   "id": "initial_id",
   "metadata": {
    "ExecuteTime": {
     "end_time": "2025-09-23T02:45:35.707814Z",
     "start_time": "2025-09-23T02:45:34.521237Z"
    },
    "collapsed": true
   },
   "outputs": [
    {
     "data": {
      "text/plain": [
       "['ISS (ZARYA)',\n",
       " '1 25544U 98067A   25266.24686783  .00027783  00000+0  48333-3 0  9995',\n",
       " '2 25544  51.6338 181.0318 0004269   9.4814 350.6255 15.50560509530377',\n",
       " 'CSS (TIANHE)',\n",
       " '1 48274U 21035A   25267.01613056  .00044487  00000+0  53348-3 0  9992',\n",
       " '2 48274  41.4637 141.3941 0001955  57.4402 302.6625 15.60118219251575',\n",
       " 'ISS (NAUKA)',\n",
       " '1 49044U 21066A   25266.24686783  .00027783  00000+0  48333-3 0  9991',\n",
       " '2 49044  51.6338 181.0318 0004269   9.4814 350.6255 15.50560509230443',\n",
       " 'FREGAT DEB',\n",
       " '1 49271U 11037PF  25266.62441859  .00015456  00000+0  27551-1 0  9996',\n",
       " '2 49271  51.6358  76.4026 0940601  49.6020 318.3159 12.33291795192047',\n",
       " 'CSS (WENTIAN)',\n",
       " '1 53239U 22085A   25267.01613056  .00044487  00000+0  53348-3 0  9995',\n",
       " '2 53239  41.4637 141.3941 0001955  57.4402 302.6625 15.60118219173845',\n",
       " 'CSS (MENGTIAN)',\n",
       " '1 54216U 22143A   25267.01613056  .00044487  00000+0  53348-3 0  9996',\n",
       " '2 54216  41.4637 141.3941 0001955  57.4402 302.6625 15.60118219158642',\n",
       " 'SOYUZ-MS 27',\n",
       " '1 63520U 25072A   25266.24686783  .00027783  00000+0  48333-3 0  9997',\n",
       " '2 63520  51.6338 181.0318 0004269   9.4814 350.6255 15.50560509 20209',\n",
       " 'SHENZHOU-20 (SZ-20)',\n",
       " '1 63632U 25082A   25267.01613056  .00044487  00000+0  53348-3 0  9993',\n",
       " '2 63632  41.4637 141.3941 0001955  57.4402 302.6625 15.60118219237170',\n",
       " 'PROGRESS-MS 31',\n",
       " '1 64751U 25146A   25266.24686783  .00027783  00000+0  48333-3 0  9996',\n",
       " '2 64751  51.6338 181.0318 0004269   9.4814 350.6255 15.50560509  6750',\n",
       " 'TIANZHOU-9',\n",
       " '1 64786U 25149A   25267.01613056  .00044487  00000+0  53348-3 0  9998',\n",
       " '2 64786  41.4637 141.3941 0001955  57.4402 302.6625 15.60118219  5118',\n",
       " 'CREW DRAGON 11',\n",
       " '1 65077U 25166A   25266.24686783  .00027783  00000+0  48333-3 0  9990',\n",
       " '2 65077  51.6338 181.0318 0004269   9.4814 350.6255 15.50560509  2141',\n",
       " 'DRAGON CRS-33',\n",
       " '1 65304U 25186A   25266.24686783  .00027783  00000+0  48333-3 0  9995',\n",
       " '2 65304  51.6338 181.0318 0004269   9.4814 350.6255 15.50560509   119',\n",
       " 'PROGRESS-MS 32',\n",
       " '1 65586U 25204A   25266.24686783  .00027783  00000+0  48333-3 0  9998',\n",
       " '2 65586  51.6338 181.0318 0004269   9.4814 350.6255 15.50560509   571',\n",
       " 'CYGNUS NG-23',\n",
       " '1 65616U 25208A   25266.24686783  .00027783  00000+0  48333-3 0  9996',\n",
       " '2 65616  51.6338 181.0318 0004269   9.4814 350.6255 15.50560509   227']"
      ]
     },
     "execution_count": 1,
     "metadata": {},
     "output_type": "execute_result"
    }
   ],
   "source": [
    "import requests\n",
    "\n",
    "def get_tle_data(url):\n",
    "    response = requests.get(url)\n",
    "    return response.text\n",
    "\n",
    "def tle_lines_to_list(tle):\n",
    "    split_data = tle.strip().split(\"\\n\")\n",
    "    stripped_data = [line.strip() for line in split_data]\n",
    "    return stripped_data\n",
    "\n",
    "tle_lines = tle_lines_to_list(get_tle_data(\"https://celestrak.org/NORAD/elements/gp.php?GROUP=stations&FORMAT=tle\"))\n",
    "tle_lines\n"
   ]
  },
  {
   "cell_type": "markdown",
   "id": "d149ddf664e46151",
   "metadata": {},
   "source": [
    "### Create nested dictionary of space station TLE data:"
   ]
  },
  {
   "cell_type": "code",
   "execution_count": 2,
   "id": "ccf2f93829ed09dc",
   "metadata": {
    "ExecuteTime": {
     "end_time": "2025-09-23T02:45:41.428452Z",
     "start_time": "2025-09-23T02:45:40.471254Z"
    }
   },
   "outputs": [
    {
     "data": {
      "text/plain": [
       "{'ISS (ZARYA)': {'Line1': {'satellite number': 25544,\n",
       "   'classification': 'U',\n",
       "   'international designator': '98067A  ',\n",
       "   'epoch': (2460941, 0.7468678299337626),\n",
       "   'first derivative of mean motion': 0.00027783,\n",
       "   'second derivative of mean motion': 0.0,\n",
       "   'BSTAR drag term': 0.00048333,\n",
       "   'ephemeris type': 0,\n",
       "   'element set number': 999,\n",
       "   'checksum 1': 5},\n",
       "  'Line2': {'satellite number': 25544,\n",
       "   'inclination': 51.6338,\n",
       "   'RAAN': 181.0318,\n",
       "   'eccentricity': 0.0004269,\n",
       "   'perigee': 9.4814,\n",
       "   'mean anomaly': 350.6255,\n",
       "   'mean motion': 15.50560509,\n",
       "   'revolution number': 53037,\n",
       "   'checksum 2': 7}},\n",
       " 'CSS (TIANHE)': {'Line1': {'satellite number': 48274,\n",
       "   'classification': 'U',\n",
       "   'international designator': '21035A  ',\n",
       "   'epoch': (2460942, 0.5161305600777268),\n",
       "   'first derivative of mean motion': 0.00044487,\n",
       "   'second derivative of mean motion': 0.0,\n",
       "   'BSTAR drag term': 0.00053348,\n",
       "   'ephemeris type': 0,\n",
       "   'element set number': 999,\n",
       "   'checksum 1': 2},\n",
       "  'Line2': {'satellite number': 48274,\n",
       "   'inclination': 41.4637,\n",
       "   'RAAN': 141.3941,\n",
       "   'eccentricity': 0.0001955,\n",
       "   'perigee': 57.4402,\n",
       "   'mean anomaly': 302.6625,\n",
       "   'mean motion': 15.60118219,\n",
       "   'revolution number': 25157,\n",
       "   'checksum 2': 5}},\n",
       " 'ISS (NAUKA)': {'Line1': {'satellite number': 49044,\n",
       "   'classification': 'U',\n",
       "   'international designator': '21066A  ',\n",
       "   'epoch': (2460941, 0.7468678299337626),\n",
       "   'first derivative of mean motion': 0.00027783,\n",
       "   'second derivative of mean motion': 0.0,\n",
       "   'BSTAR drag term': 0.00048333,\n",
       "   'ephemeris type': 0,\n",
       "   'element set number': 999,\n",
       "   'checksum 1': 1},\n",
       "  'Line2': {'satellite number': 49044,\n",
       "   'inclination': 51.6338,\n",
       "   'RAAN': 181.0318,\n",
       "   'eccentricity': 0.0004269,\n",
       "   'perigee': 9.4814,\n",
       "   'mean anomaly': 350.6255,\n",
       "   'mean motion': 15.50560509,\n",
       "   'revolution number': 23044,\n",
       "   'checksum 2': 3}},\n",
       " 'FREGAT DEB': {'Line1': {'satellite number': 49271,\n",
       "   'classification': 'U',\n",
       "   'international designator': '11037PF ',\n",
       "   'epoch': (2460942, 0.12441859021782875),\n",
       "   'first derivative of mean motion': 0.00015456,\n",
       "   'second derivative of mean motion': 0.0,\n",
       "   'BSTAR drag term': 0.027551,\n",
       "   'ephemeris type': 0,\n",
       "   'element set number': 999,\n",
       "   'checksum 1': 6},\n",
       "  'Line2': {'satellite number': 49271,\n",
       "   'inclination': 51.6358,\n",
       "   'RAAN': 76.4026,\n",
       "   'eccentricity': 0.0940601,\n",
       "   'perigee': 49.602,\n",
       "   'mean anomaly': 318.3159,\n",
       "   'mean motion': 12.33291795,\n",
       "   'revolution number': 19204,\n",
       "   'checksum 2': 7}},\n",
       " 'CSS (WENTIAN)': {'Line1': {'satellite number': 53239,\n",
       "   'classification': 'U',\n",
       "   'international designator': '22085A  ',\n",
       "   'epoch': (2460942, 0.5161305600777268),\n",
       "   'first derivative of mean motion': 0.00044487,\n",
       "   'second derivative of mean motion': 0.0,\n",
       "   'BSTAR drag term': 0.00053348,\n",
       "   'ephemeris type': 0,\n",
       "   'element set number': 999,\n",
       "   'checksum 1': 5},\n",
       "  'Line2': {'satellite number': 53239,\n",
       "   'inclination': 41.4637,\n",
       "   'RAAN': 141.3941,\n",
       "   'eccentricity': 0.0001955,\n",
       "   'perigee': 57.4402,\n",
       "   'mean anomaly': 302.6625,\n",
       "   'mean motion': 15.60118219,\n",
       "   'revolution number': 17384,\n",
       "   'checksum 2': 5}},\n",
       " 'CSS (MENGTIAN)': {'Line1': {'satellite number': 54216,\n",
       "   'classification': 'U',\n",
       "   'international designator': '22143A  ',\n",
       "   'epoch': (2460942, 0.5161305600777268),\n",
       "   'first derivative of mean motion': 0.00044487,\n",
       "   'second derivative of mean motion': 0.0,\n",
       "   'BSTAR drag term': 0.00053348,\n",
       "   'ephemeris type': 0,\n",
       "   'element set number': 999,\n",
       "   'checksum 1': 6},\n",
       "  'Line2': {'satellite number': 54216,\n",
       "   'inclination': 41.4637,\n",
       "   'RAAN': 141.3941,\n",
       "   'eccentricity': 0.0001955,\n",
       "   'perigee': 57.4402,\n",
       "   'mean anomaly': 302.6625,\n",
       "   'mean motion': 15.60118219,\n",
       "   'revolution number': 15864,\n",
       "   'checksum 2': 2}},\n",
       " 'SOYUZ-MS 27': {'Line1': {'satellite number': 63520,\n",
       "   'classification': 'U',\n",
       "   'international designator': '25072A  ',\n",
       "   'epoch': (2460941, 0.7468678299337626),\n",
       "   'first derivative of mean motion': 0.00027783,\n",
       "   'second derivative of mean motion': 0.0,\n",
       "   'BSTAR drag term': 0.00048333,\n",
       "   'ephemeris type': 0,\n",
       "   'element set number': 999,\n",
       "   'checksum 1': 7},\n",
       "  'Line2': {'satellite number': 63520,\n",
       "   'inclination': 51.6338,\n",
       "   'RAAN': 181.0318,\n",
       "   'eccentricity': 0.0004269,\n",
       "   'perigee': 9.4814,\n",
       "   'mean anomaly': 350.6255,\n",
       "   'mean motion': 15.50560509,\n",
       "   'revolution number': 2020,\n",
       "   'checksum 2': 9}},\n",
       " 'SHENZHOU-20 (SZ-20)': {'Line1': {'satellite number': 63632,\n",
       "   'classification': 'U',\n",
       "   'international designator': '25082A  ',\n",
       "   'epoch': (2460942, 0.5161305600777268),\n",
       "   'first derivative of mean motion': 0.00044487,\n",
       "   'second derivative of mean motion': 0.0,\n",
       "   'BSTAR drag term': 0.00053348,\n",
       "   'ephemeris type': 0,\n",
       "   'element set number': 999,\n",
       "   'checksum 1': 3},\n",
       "  'Line2': {'satellite number': 63632,\n",
       "   'inclination': 41.4637,\n",
       "   'RAAN': 141.3941,\n",
       "   'eccentricity': 0.0001955,\n",
       "   'perigee': 57.4402,\n",
       "   'mean anomaly': 302.6625,\n",
       "   'mean motion': 15.60118219,\n",
       "   'revolution number': 23717,\n",
       "   'checksum 2': 0}},\n",
       " 'PROGRESS-MS 31': {'Line1': {'satellite number': 64751,\n",
       "   'classification': 'U',\n",
       "   'international designator': '25146A  ',\n",
       "   'epoch': (2460941, 0.7468678299337626),\n",
       "   'first derivative of mean motion': 0.00027783,\n",
       "   'second derivative of mean motion': 0.0,\n",
       "   'BSTAR drag term': 0.00048333,\n",
       "   'ephemeris type': 0,\n",
       "   'element set number': 999,\n",
       "   'checksum 1': 6},\n",
       "  'Line2': {'satellite number': 64751,\n",
       "   'inclination': 51.6338,\n",
       "   'RAAN': 181.0318,\n",
       "   'eccentricity': 0.0004269,\n",
       "   'perigee': 9.4814,\n",
       "   'mean anomaly': 350.6255,\n",
       "   'mean motion': 15.50560509,\n",
       "   'revolution number': 675,\n",
       "   'checksum 2': 0}},\n",
       " 'TIANZHOU-9': {'Line1': {'satellite number': 64786,\n",
       "   'classification': 'U',\n",
       "   'international designator': '25149A  ',\n",
       "   'epoch': (2460942, 0.5161305600777268),\n",
       "   'first derivative of mean motion': 0.00044487,\n",
       "   'second derivative of mean motion': 0.0,\n",
       "   'BSTAR drag term': 0.00053348,\n",
       "   'ephemeris type': 0,\n",
       "   'element set number': 999,\n",
       "   'checksum 1': 8},\n",
       "  'Line2': {'satellite number': 64786,\n",
       "   'inclination': 41.4637,\n",
       "   'RAAN': 141.3941,\n",
       "   'eccentricity': 0.0001955,\n",
       "   'perigee': 57.4402,\n",
       "   'mean anomaly': 302.6625,\n",
       "   'mean motion': 15.60118219,\n",
       "   'revolution number': 511,\n",
       "   'checksum 2': 8}},\n",
       " 'CREW DRAGON 11': {'Line1': {'satellite number': 65077,\n",
       "   'classification': 'U',\n",
       "   'international designator': '25166A  ',\n",
       "   'epoch': (2460941, 0.7468678299337626),\n",
       "   'first derivative of mean motion': 0.00027783,\n",
       "   'second derivative of mean motion': 0.0,\n",
       "   'BSTAR drag term': 0.00048333,\n",
       "   'ephemeris type': 0,\n",
       "   'element set number': 999,\n",
       "   'checksum 1': 0},\n",
       "  'Line2': {'satellite number': 65077,\n",
       "   'inclination': 51.6338,\n",
       "   'RAAN': 181.0318,\n",
       "   'eccentricity': 0.0004269,\n",
       "   'perigee': 9.4814,\n",
       "   'mean anomaly': 350.6255,\n",
       "   'mean motion': 15.50560509,\n",
       "   'revolution number': 214,\n",
       "   'checksum 2': 1}},\n",
       " 'DRAGON CRS-33': {'Line1': {'satellite number': 65304,\n",
       "   'classification': 'U',\n",
       "   'international designator': '25186A  ',\n",
       "   'epoch': (2460941, 0.7468678299337626),\n",
       "   'first derivative of mean motion': 0.00027783,\n",
       "   'second derivative of mean motion': 0.0,\n",
       "   'BSTAR drag term': 0.00048333,\n",
       "   'ephemeris type': 0,\n",
       "   'element set number': 999,\n",
       "   'checksum 1': 5},\n",
       "  'Line2': {'satellite number': 65304,\n",
       "   'inclination': 51.6338,\n",
       "   'RAAN': 181.0318,\n",
       "   'eccentricity': 0.0004269,\n",
       "   'perigee': 9.4814,\n",
       "   'mean anomaly': 350.6255,\n",
       "   'mean motion': 15.50560509,\n",
       "   'revolution number': 11,\n",
       "   'checksum 2': 9}},\n",
       " 'PROGRESS-MS 32': {'Line1': {'satellite number': 65586,\n",
       "   'classification': 'U',\n",
       "   'international designator': '25204A  ',\n",
       "   'epoch': (2460941, 0.7468678299337626),\n",
       "   'first derivative of mean motion': 0.00027783,\n",
       "   'second derivative of mean motion': 0.0,\n",
       "   'BSTAR drag term': 0.00048333,\n",
       "   'ephemeris type': 0,\n",
       "   'element set number': 999,\n",
       "   'checksum 1': 8},\n",
       "  'Line2': {'satellite number': 65586,\n",
       "   'inclination': 51.6338,\n",
       "   'RAAN': 181.0318,\n",
       "   'eccentricity': 0.0004269,\n",
       "   'perigee': 9.4814,\n",
       "   'mean anomaly': 350.6255,\n",
       "   'mean motion': 15.50560509,\n",
       "   'revolution number': 57,\n",
       "   'checksum 2': 1}},\n",
       " 'CYGNUS NG-23': {'Line1': {'satellite number': 65616,\n",
       "   'classification': 'U',\n",
       "   'international designator': '25208A  ',\n",
       "   'epoch': (2460941, 0.7468678299337626),\n",
       "   'first derivative of mean motion': 0.00027783,\n",
       "   'second derivative of mean motion': 0.0,\n",
       "   'BSTAR drag term': 0.00048333,\n",
       "   'ephemeris type': 0,\n",
       "   'element set number': 999,\n",
       "   'checksum 1': 6},\n",
       "  'Line2': {'satellite number': 65616,\n",
       "   'inclination': 51.6338,\n",
       "   'RAAN': 181.0318,\n",
       "   'eccentricity': 0.0004269,\n",
       "   'perigee': 9.4814,\n",
       "   'mean anomaly': 350.6255,\n",
       "   'mean motion': 15.50560509,\n",
       "   'revolution number': 22,\n",
       "   'checksum 2': 7}}}"
      ]
     },
     "execution_count": 2,
     "metadata": {},
     "output_type": "execute_result"
    }
   ],
   "source": [
    "from datetime import datetime, timedelta\n",
    "\n",
    "\n",
    "def tle_notation_to_float(s):\n",
    "    s = s.strip()\n",
    "    if not s or s == \"00000+0\":\n",
    "        return 0.0\n",
    "    base, exp = s[:-2], s[-2:]\n",
    "    base = \"0\" + \".\" + base\n",
    "    return float(f\"{base}e{exp}\")\n",
    "\n",
    "\n",
    "def epoch_to_datetime(epoch):\n",
    "    year = int(epoch[0:2])\n",
    "    day_of_year = float(epoch[2:])\n",
    "    year += 2000 if year < 57 else 1900\n",
    "\n",
    "    epoch_base = datetime(year, 1, 1)\n",
    "\n",
    "    epoch_datetime = epoch_base + timedelta(days=day_of_year - 1)\n",
    "\n",
    "    return epoch_datetime\n",
    "\n",
    "\n",
    "def datetime_to_jd(dt):\n",
    "    jd = dt.toordinal() + 1721424.5 + (dt.hour + dt.minute / 60\n",
    "                                       + dt.second / 3600\n",
    "                                       + dt.microsecond / 3.6e9) / 24.0\n",
    "    jd_int = int(jd)\n",
    "    jd_frac = jd - jd_int\n",
    "    return jd_int, jd_frac\n",
    "\n",
    "\n",
    "def tle_to_dict(tle_data):\n",
    "    \"\"\"\n",
    "    Parses a tle satellite dataset into a python dictionary.\n",
    "    :param: tle_data\n",
    "    :return: dictionary\n",
    "    \"\"\"\n",
    "    tle_data_split = tle_data.strip().split(\"\\n\")\n",
    "    tle_data_stripped = [line.strip() for line in tle_data_split]\n",
    "\n",
    "    tle_list = []\n",
    "    line_list = []\n",
    "\n",
    "\n",
    "    for line in tle_data_stripped:\n",
    "        line_list.append(line)\n",
    "        if len(line_list) == 3:\n",
    "            tle_list.append(line_list)\n",
    "            line_list = []\n",
    "\n",
    "    tle_dict = {}\n",
    "\n",
    "    for sat in tle_list:\n",
    "        name = sat[0]\n",
    "        line_1 = sat[1]\n",
    "        line_2 = sat[2]\n",
    "        line_dict = {}\n",
    "\n",
    "        #Line 1 values\n",
    "        sat_number = int(line_1[2:7].strip())\n",
    "        classification = line_1[7]\n",
    "        Int_designation = line_1[9:17]\n",
    "        epoch = datetime_to_jd(epoch_to_datetime(line_1[18:32]))\n",
    "        first_derivative_of_mean_motion = float(line_1[33:43])\n",
    "        second_derivative_of_mean_motion = tle_notation_to_float(line_1[44:52])\n",
    "        bstar_drag_term = tle_notation_to_float(line_1[53:61])\n",
    "        ephemeris_type = int(line_1[62])\n",
    "        element_set_number = int(line_1[64:68])\n",
    "        checksum_1 = int(line_1[68])\n",
    "\n",
    "        #Line 2 values\n",
    "        sat_number_2 = int(line_2[2:7].strip())\n",
    "        inclination = float(line_2[8:16])\n",
    "        raan = float(line_2[17:25])\n",
    "        eccentricity = float(\".\" + line_2[26:33].strip())\n",
    "        perigee = float(line_2[34:42])\n",
    "        mean_anomaly = float(line_2[43:51])\n",
    "        mean_motion = float(line_2[52:63])\n",
    "        revolution_number = int(line_2[63:68])\n",
    "        checksum_2 = int(line_2[68])\n",
    "\n",
    "        line_dict[\"Line1\"] = {\"satellite number\": sat_number, \"classification\": classification, \"international designator\": Int_designation, \"epoch\": epoch,\n",
    "                              \"first derivative of mean motion\": first_derivative_of_mean_motion, \"second derivative of mean motion\": second_derivative_of_mean_motion,\n",
    "                              \"BSTAR drag term\": bstar_drag_term, \"ephemeris type\": ephemeris_type, \"element set number\": element_set_number, \"checksum 1\": checksum_1}\n",
    "\n",
    "        line_dict[\"Line2\"] = {\"satellite number\": sat_number_2, \"inclination\": inclination, \"RAAN\": raan, \"eccentricity\": eccentricity, \"perigee\": perigee,\n",
    "                              \"mean anomaly\": mean_anomaly, \"mean motion\": mean_motion, \"revolution number\": revolution_number, \"checksum 2\": checksum_2}\n",
    "\n",
    "        tle_dict[name] = line_dict\n",
    "\n",
    "    return tle_dict\n",
    "\n",
    "\n",
    "space_station_dict = tle_to_dict(get_tle_data(\"https://celestrak.org/NORAD/elements/gp.php?GROUP=stations&FORMAT=tle\"))\n",
    "space_station_dict"
   ]
  },
  {
   "cell_type": "markdown",
   "id": "5c11a667",
   "metadata": {},
   "source": [
    "### Import the SGP4 Propagotor library, propagate the ISS orbit, and get its state vector:"
   ]
  },
  {
   "cell_type": "code",
   "execution_count": 5,
   "id": "94ee5731",
   "metadata": {
    "ExecuteTime": {
     "end_time": "2025-09-23T03:02:10.882136Z",
     "start_time": "2025-09-23T03:02:10.876658Z"
    }
   },
   "outputs": [
    {
     "data": {
      "text/plain": [
       "((-6790.004065243361, -122.29047406618665, 0.0009781515509994568),\n",
       " (0.09279529393946069, -4.7552327114024715, 6.0123250833190065))"
      ]
     },
     "execution_count": 5,
     "metadata": {},
     "output_type": "execute_result"
    }
   ],
   "source": [
    "from sgp4.api import Satrec\n",
    "\n",
    "def propagate(lines, time):\n",
    "    ISS = Satrec.twoline2rv(lines[1], lines[2])\n",
    "    jd_int, jd_frac = time\n",
    "    error_code, position, velocity = ISS.sgp4(jd_int, jd_frac)\n",
    "    return position, velocity\n",
    "\n",
    "state_vector_params = propagate(tle_lines, space_station_dict[\"ISS (ZARYA)\"][\"Line1\"][\"epoch\"])\n",
    "state_vector_params\n"
   ]
  },
  {
   "cell_type": "markdown",
   "id": "e4b8b146",
   "metadata": {},
   "source": [
    "### Propagate the ISS orbit 45 minutes into the future:"
   ]
  },
  {
   "cell_type": "code",
   "execution_count": 7,
   "id": "332f427f",
   "metadata": {},
   "outputs": [
    {
     "data": {
      "text/plain": [
       "((1103.5240187150675, -4238.707879798008, 5183.270817540294),\n",
       " (7.539852572858038, 0.3077706614214961, -1.3460571915273944))"
      ]
     },
     "execution_count": 7,
     "metadata": {},
     "output_type": "execute_result"
    }
   ],
   "source": [
    "from sgp4.api import WGS72, Satrec\n",
    "from datetime import datetime, timedelta, timezone\n",
    "\n",
    "future_time = datetime.now(timezone.utc) + timedelta(minutes=45)\n",
    "\n",
    "future_orbit = propagate(tle_lines, datetime_to_jd(future_time))\n",
    "\n",
    "future_orbit"
   ]
  }
 ],
 "metadata": {
  "kernelspec": {
   "display_name": ".venv",
   "language": "python",
   "name": "python3"
  },
  "language_info": {
   "codemirror_mode": {
    "name": "ipython",
    "version": 3
   },
   "file_extension": ".py",
   "mimetype": "text/x-python",
   "name": "python",
   "nbconvert_exporter": "python",
   "pygments_lexer": "ipython3",
   "version": "3.10.8"
  }
 },
 "nbformat": 4,
 "nbformat_minor": 5
}
